{
  "type": "FeatureCollection",
  "features": [
    {
      "type": "Feature",
      "properties": {
        "norad_id": 33860,
        "name": "IRIDIUM 33 DEB",
        "group": "iridium-33-debris",
        "lat": -47.73084461791568,
        "lon": -152.94475968970247,
        "alt_km": 676.4162381032929,
        "timestamp": "2025-12-22T04:03:39.553567+00:00",
        "meta_object_name": "IRIDIUM 33 DEB",
        "meta_object_id": "1997-051AD",
        "meta_epoch": "2025-12-21T13:01:46.627392",
        "meta_mean_motion": 14.67463908,
        "meta_eccentricity": 0.00063803,
        "meta_inclination": 86.3822,
        "meta_ra_of_asc_node": 23.3411,
        "meta_arg_of_pericenter": 324.1868,
        "meta_mean_anomaly": 197.1057,
        "meta_ephemeris_type": 0,
        "meta_classification_type": "U",
        "meta_norad_cat_id": 33860,
        "meta_element_set_no": 999,
        "meta_rev_at_epoch": 88851,
        "meta_bstar": 0.00083483407,
        "meta_mean_motion_dot": 4.749e-05,
        "meta_mean_motion_ddot": 0,
        "tle_line1": "1 33860U 97051AD  25355.54290078  .00004749  00000+0  83483-3 0  9999",
        "tle_line2": "2 33860  86.3822  23.3411 0006380 324.1868 197.1057 14.67463908888512"
      },
      "geometry": {
        "type": "Point",
        "coordinates": [
          -152.94475968970247,
          -47.73084461791568
        ]
      }
    },
    {
      "type": "Feature",
      "properties": {
        "norad_id": 33862,
        "name": "IRIDIUM 33 DEB",
        "group": "iridium-33-debris",
        "lat": -25.446554596748896,
        "lon": 31.658824846273017,
        "alt_km": 651.0344193992487,
        "timestamp": "2025-12-22T04:03:39.553578+00:00",
        "meta_object_name": "IRIDIUM 33 DEB",
        "meta_object_id": "1997-051AF",
        "meta_epoch": "2025-12-21T13:59:31.257024",
        "meta_mean_motion": 14.69601315,
        "meta_eccentricity": 0.0052554,
        "meta_inclination": 86.4078,
        "meta_ra_of_asc_node": 33.6303,
        "meta_arg_of_pericenter": 39.5195,
        "meta_mean_anomaly": 76.2806,
        "meta_ephemeris_type": 0,
        "meta_classification_type": "U",
        "meta_norad_cat_id": 33862,
        "meta_element_set_no": 999,
        "meta_rev_at_epoch": 88953,
        "meta_bstar": 0.0010364,
        "meta_mean_motion_dot": 6.314e-05,
        "meta_mean_motion_ddot": 0,
        "tle_line1": "1 33862U 97051AF  25355.58300066  .00006314  00000+0  10364-2 0  9991",
        "tle_line2": "2 33862  86.4078  33.6303 0052554  39.5195  76.2806 14.69601315889536"
      },
      "geometry": {
        "type": "Point",
        "coordinates": [
          31.658824846273017,
          -25.446554596748896
        ]
      }
    },
    {
      "type": "Feature",
      "properties": {
        "norad_id": 33866,
        "name": "IRIDIUM 33 DEB",
        "group": "iridium-33-debris",
        "lat": -20.47838329602968,
        "lon": 87.66184947852588,
        "alt_km": 885.4500895943338,
        "timestamp": "2025-12-22T04:03:39.553589+00:00",
        "meta_object_name": "IRIDIUM 33 DEB",
        "meta_object_id": "1997-051AK",
        "meta_epoch": "2025-12-21T06:30:23.838336",
        "meta_mean_motion": 14.25298734,
        "meta_eccentricity": 0.0115015,
        "meta_inclination": 86.3001,
        "meta_ra_of_asc_node": 89.4265,
        "meta_arg_of_pericenter": 134.3497,
        "meta_mean_anomaly": 280.5396,
        "meta_ephemeris_type": 0,
        "meta_classification_type": "U",
        "meta_norad_cat_id": 33866,
        "meta_element_set_no": 999,
        "meta_rev_at_epoch": 86932,
        "meta_bstar": 0.00042898,
        "meta_mean_motion_dot": 1.102e-05,
        "meta_mean_motion_ddot": 0,
        "tle_line1": "1 33866U 97051AK  25355.27110924  .00001102  00000+0  42898-3 0  9991",
        "tle_line2": "2 33866  86.3001  89.4265 0115015 134.3497 280.5396 14.25298734869320"
      },
      "geometry": {
        "type": "Point",
        "coordinates": [
          87.66184947852588,
          -20.47838329602968
        ]
      }
    },
    {
      "type": "Feature",
      "properties": {
        "norad_id": 33867,
        "name": "IRIDIUM 33 DEB",
        "group": "iridium-33-debris",
        "lat": 35.91528502215155,
        "lon": 162.50075331097986,
        "alt_km": 286.10869706914946,
        "timestamp": "2025-12-22T04:03:39.553601+00:00",
        "meta_object_name": "IRIDIUM 33 DEB",
        "meta_object_id": "1997-051AL",
        "meta_epoch": "2025-12-21T19:54:51.829056",
        "meta_mean_motion": 15.90516397,
        "meta_eccentricity": 0.0013415,
        "meta_inclination": 86.3664,
        "meta_ra_of_asc_node": 345.3213,
        "meta_arg_of_pericenter": 99.7758,
        "meta_mean_anomaly": 260.5039,
        "meta_ephemeris_type": 0,
        "meta_classification_type": "U",
        "meta_norad_cat_id": 33867,
        "meta_element_set_no": 999,
        "meta_rev_at_epoch": 89654,
        "meta_bstar": 0.010104,
        "meta_mean_motion_dot": 0.02858314,
        "meta_mean_motion_ddot": 0.0062536,
        "tle_line1": "1 33867U 97051AL  25355.82976654  .02858314  62536-2  10104-1 0  9998",
        "tle_line2": "2 33867  86.3664 345.3213 0013415  99.7758 260.5039 15.90516397896545"
      },
      "geometry": {
        "type": "Point",
        "coordinates": [
          162.50075331097986,
          35.91528502215155
        ]
      }
    },
    {
      "type": "Feature",
      "properties": {
        "norad_id": 33870,
        "name": "IRIDIUM 33 DEB",
        "group": "iridium-33-debris",
        "lat": 56.235336241025465,
        "lon": 59.66170168692324,
        "alt_km": 734.1840874771633,
        "timestamp": "2025-12-22T04:03:39.553612+00:00",
        "meta_object_name": "IRIDIUM 33 DEB",
        "meta_object_id": "1997-051AP",
        "meta_epoch": "2025-12-21T16:45:39.931776",
        "meta_mean_motion": 14.45892249,
        "meta_eccentricity": 0.0022337,
        "meta_inclination": 86.3739,
        "meta_ra_of_asc_node": 54.4207,
        "meta_arg_of_pericenter": 149.5314,
        "meta_mean_anomaly": 337.9924,
        "meta_ephemeris_type": 0,
        "meta_classification_type": "U",
        "meta_norad_cat_id": 33870,
        "meta_element_set_no": 999,
        "meta_rev_at_epoch": 88266,
        "meta_bstar": 0.00052329,
        "meta_mean_motion_dot": 1.884e-05,
        "meta_mean_motion_ddot": 0,
        "tle_line1": "1 33870U 97051AP  25355.69837884  .00001884  00000+0  52329-3 0  9990",
        "tle_line2": "2 33870  86.3739  54.4207 0022337 149.5314 337.9924 14.45892249882660"
      },
      "geometry": {
        "type": "Point",
        "coordinates": [
          59.66170168692324,
          56.235336241025465
        ]
      }
    },
    {
      "type": "Feature",
      "properties": {
        "norad_id": 33881,
        "name": "IRIDIUM 33 DEB",
        "group": "iridium-33-debris",
        "lat": -68.93542926798901,
        "lon": 93.20096714199624,
        "alt_km": 747.2871201856842,
        "timestamp": "2025-12-22T04:03:39.553622+00:00",
        "meta_object_name": "IRIDIUM 33 DEB",
        "meta_object_id": "1997-051BA",
        "meta_epoch": "2025-12-21T08:54:02.892384",
        "meta_mean_motion": 14.56711951,
        "meta_eccentricity": 0.00612443,
        "meta_inclination": 86.3865,
        "meta_ra_of_asc_node": 102.9912,
        "meta_arg_of_pericenter": 146.8792,
        "meta_mean_anomaly": 279.602,
        "meta_ephemeris_type": 0,
        "meta_classification_type": "U",
        "meta_norad_cat_id": 33881,
        "meta_element_set_no": 999,
        "meta_rev_at_epoch": 87626,
        "meta_bstar": 0.0014450867,
        "meta_mean_motion_dot": 6.645e-05,
        "meta_mean_motion_ddot": 0,
        "tle_line1": "1 33881U 97051BA  25355.37086681  .00006645  00000+0  14451-2 0  9991",
        "tle_line2": "2 33881  86.3865 102.9912 0061244 146.8792 279.6020 14.56711951876264"
      },
      "geometry": {
        "type": "Point",
        "coordinates": [
          93.20096714199624,
          -68.93542926798901
        ]
      }
    },
    {
      "type": "Feature",
      "properties": {
        "norad_id": 33884,
        "name": "IRIDIUM 33 DEB",
        "group": "iridium-33-debris",
        "lat": -44.137547451066226,
        "lon": -170.90655157384498,
        "alt_km": 640.8033950337312,
        "timestamp": "2025-12-22T04:03:39.553633+00:00",
        "meta_object_name": "IRIDIUM 33 DEB",
        "meta_object_id": "1997-051BD",
        "meta_epoch": "2025-12-21T19:42:17.168256",
        "meta_mean_motion": 14.77591703,
        "meta_eccentricity": 0.0008977,
        "meta_inclination": 86.3691,
        "meta_ra_of_asc_node": 5.7181,
        "meta_arg_of_pericenter": 287.8241,
        "meta_mean_anomaly": 245.5748,
        "meta_ephemeris_type": 0,
        "meta_classification_type": "U",
        "meta_norad_cat_id": 33884,
        "meta_element_set_no": 999,
        "meta_rev_at_epoch": 88981,
        "meta_bstar": 0.0012316,
        "meta_mean_motion_dot": 8.831e-05,
        "meta_mean_motion_ddot": 0,
        "tle_line1": "1 33884U 97051BD  25355.82103204  .00008831  00000+0  12316-2 0  9992",
        "tle_line2": "2 33884  86.3691   5.7181 0008977 287.8241 245.5748 14.77591703889819"
      },
      "geometry": {
        "type": "Point",
        "coordinates": [
          -170.90655157384498,
          -44.137547451066226
        ]
      }
    }
  ]
}